[{"OBJECT_NAME":"IRIDIUM 33 DEB","OBJECT_ID":"1997-051LJ","EPOCH":"2026-03-06T06:44:53.935584","MEAN_MOTION":14.4074285,"ECCENTRICITY":0.0014811,"INCLINATION":86.3443,"RA_OF_ASC_NODE":356.9123,"ARG_OF_PERICENTER":309.8051,"MEAN_ANOMALY":202.7698,"EPHEMERIS_TYPE":0,"CLASSIFICATION_TYPE":"U","NORAD_CAT_ID":34765,"ELEMENT_SET_NO":999,"REV_AT_EPOCH":88816,"BSTAR":0.00058800584,"MEAN_MOTION_DOT":1.901e-5,"MEAN_MOTION_DDOT":0},{"OBJECT_NAME":"IRIDIUM 33 DEB","OBJECT_ID":"1997-051MH","EPOCH":"2026-03-06T07:46:52.671936","MEAN_MOTION":14.53017335,"ECCENTRICITY":0.00192884,"INCLINATION":86.3972,"RA_OF_ASC_NODE":14.9467,"ARG_OF_PERICENTER":168.9799,"MEAN_ANOMALY":343.4331,"EPHEMERIS_TYPE":0,"CLASSIFICATION_TYPE":"U","NORAD_CAT_ID":34833,"ELEMENT_SET_NO":999,"REV_AT_EPOCH":88928,"BSTAR":0.0010206988,"MEAN_MOTION_DOT":4.242e-5,"MEAN_MOTION_DDOT":0},{"OBJECT_NAME":"IRIDIUM 33 DEB","OBJECT_ID":"1997-051MQ","EPOCH":"2026-03-05T20:40:15.054240","MEAN_MOTION":14.78351174,"ECCENTRICITY":0.0014632,"INCLINATION":86.3053,"RA_OF_ASC_NODE":275.953,"ARG_OF_PERICENTER":263.8753,"MEAN_ANOMALY":155.1214,"EPHEMERIS_TYPE":0,"CLASSIFICATION_TYPE":"U","NORAD_CAT_ID":34870,"ELEMENT_SET_NO":999,"REV_AT_EPOCH":90138,"BSTAR":0.0015377266,"MEAN_MOTION_DOT":0.00011235,"MEAN_MOTION_DDOT":0},{"OBJECT_NAME":"IRIDIUM 33 DEB","OBJECT_ID":"1997-051MY","EPOCH":"2026-03-05T01:55:20.165664","MEAN_MOTION":14.67239039,"ECCENTRICITY":0.00241436,"INCLINATION":86.3257,"RA_OF_ASC_NODE":289.7375,"ARG_OF_PERICENTER":299.3757,"MEAN_ANOMALY":214.4851,"EPHEMERIS_TYPE":0,"CLASSIFICATION_TYPE":"U","NORAD_CAT_ID":34896,"ELEMENT_SET_NO":999,"REV_AT_EPOCH":88826,"BSTAR":0.0009012968,"MEAN_MOTION_DOT":5.12e-5,"MEAN_MOTION_DDOT":0},{"OBJECT_NAME":"IRIDIUM 33 DEB","OBJECT_ID":"1997-051NF","EPOCH":"2026-03-06T04:26:47.951808","MEAN_MOTION":14.58889301,"ECCENTRICITY":0.00799526,"INCLINATION":86.1326,"RA_OF_ASC_NODE":329.4515,"ARG_OF_PERICENTER":12.464,"MEAN_ANOMALY":139.1285,"EPHEMERIS_TYPE":0,"CLASSIFICATION_TYPE":"U","NORAD_CAT_ID":34926,"ELEMENT_SET_NO":999,"REV_AT_EPOCH":87671,"BSTAR":0.004977443,"MEAN_MOTION_DOT":0.00024448,"MEAN_MOTION_DDOT":0},{"OBJECT_NAME":"IRIDIUM 33 DEB","OBJECT_ID":"1997-051NR","EPOCH":"2026-03-05T20:40:03.828288","MEAN_MOTION":14.42447676,"ECCENTRICITY":0.00198734,"INCLINATION":86.3732,"RA_OF_ASC_NODE":21.3965,"ARG_OF_PERICENTER":316.4898,"MEAN_ANOMALY":72.5764,"EPHEMERIS_TYPE":0,"CLASSIFICATION_TYPE":"U","NORAD_CAT_ID":34985,"ELEMENT_SET_NO":999,"REV_AT_EPOCH":88373,"BSTAR":0.001148189,"MEAN_MOTION_DOT":3.827e-5,"MEAN_MOTION_DDOT":0},{"OBJECT_NAME":"IRIDIUM 33 DEB","OBJECT_ID":"1997-051NX","EPOCH":"2026-03-03T04:42:35.498880","MEAN_MOTION":14.48072669,"ECCENTRICITY":0.0007886,"INCLINATION":86.3285,"RA_OF_ASC_NODE":333.7982,"ARG_OF_PERICENTER":165.3511,"MEAN_ANOMALY":194.7923,"EPHEMERIS_TYPE":0,"CLASSIFICATION_TYPE":"U","NORAD_CAT_ID":35051,"ELEMENT_SET_NO":999,"REV_AT_EPOCH":88160,"BSTAR":0.00071393968,"MEAN_MOTION_DOT":2.674e-5,"MEAN_MOTION_DDOT":0},{"OBJECT_NAME":"IRIDIUM 33 DEB","OBJECT_ID":"1997-051NY","EPOCH":"2026-03-05T05:11:35.629440","MEAN_MOTION":14.3862155,"ECCENTRICITY":0.0011729,"INCLINATION":86.3362,"RA_OF_ASC_NODE":345.1291,"ARG_OF_PERICENTER":161.9865,"MEAN_ANOMALY":198.1751,"EPHEMERIS_TYPE":0,"CLASSIFICATION_TYPE":"U","NORAD_CAT_ID":35052,"ELEMENT_SET_NO":999,"REV_AT_EPOCH":88461,"BSTAR":0.00026249,"MEAN_MOTION_DOT":8.24e-6,"MEAN_MOTION_DDOT":0},{"OBJECT_NAME":"IRIDIUM 33 DEB","OBJECT_ID":"1997-051PF","EPOCH":"2026-03-05T13:52:53.815296","MEAN_MOTION":15.03148158,"ECCENTRICITY":0.0029534,"INCLINATION":86.2097,"RA_OF_ASC_NODE":12.3496,"ARG_OF_PERICENTER":232.6743,"MEAN_ANOMALY":127.1799,"EPHEMERIS_TYPE":0,"CLASSIFICATION_TYPE":"U","NORAD_CAT_ID":35080,"ELEMENT_SET_NO":999,"REV_AT_EPOCH":70924,"BSTAR":0.0097196,"MEAN_MOTION_DOT":0.0013478,"MEAN_MOTION_DDOT":0},{"OBJECT_NAME":"IRIDIUM 33 DEB","OBJECT_ID":"1997-051PM","EPOCH":"2026-03-06T03:51:50.677344","MEAN_MOTION":14.45593938,"ECCENTRICITY":0.00136999,"INCLINATION":86.3872,"RA_OF_ASC_NODE":27.1281,"ARG_OF_PERICENTER":221.0232,"MEAN_ANOMALY":138.9941,"EPHEMERIS_TYPE":0,"CLASSIFICATION_TYPE":"U","NORAD_CAT_ID":35297,"ELEMENT_SET_NO":999,"REV_AT_EPOCH":71631,"BSTAR":0.00076887819,"MEAN_MOTION_DOT":2.737e-5,"MEAN_MOTION_DDOT":0},{"OBJECT_NAME":"IRIDIUM 33 DEB","OBJECT_ID":"1997-051PP","EPOCH":"2026-03-05T19:04:32.467008","MEAN_MOTION":14.41641336,"ECCENTRICITY":0.00537999,"INCLINATION":86.2922,"RA_OF_ASC_NODE":357.0122,"ARG_OF_PERICENTER":186.1197,"MEAN_ANOMALY":203.6019,"EPHEMERIS_TYPE":0,"CLASSIFICATION_TYPE":"U","NORAD_CAT_ID":35299,"ELEMENT_SET_NO":999,"REV_AT_EPOCH":87527,"BSTAR":0.0016207558,"MEAN_MOTION_DOT":5.388e-5,"MEAN_MOTION_DDOT":0},{"OBJECT_NAME":"IRIDIUM 33 DEB","OBJECT_ID":"1997-051QA","EPOCH":"2026-03-05T01:26:44.036160","MEAN_MOTION":14.50261027,"ECCENTRICITY":0.00128222,"INCLINATION":86.3617,"RA_OF_ASC_NODE":349.2201,"ARG_OF_PERICENTER":180.2098,"MEAN_ANOMALY":179.9103,"EPHEMERIS_TYPE":0,"CLASSIFICATION_TYPE":"U","NORAD_CAT_ID":35480,"ELEMENT_SET_NO":999,"REV_AT_EPOCH":88224,"BSTAR":0.00079406931,"MEAN_MOTION_DOT":3.114e-5,"MEAN_MOTION_DDOT":0},{"OBJECT_NAME":"IRIDIUM 33 DEB","OBJECT_ID":"1997-051QE","EPOCH":"2026-02-19T04:36:15.127200","MEAN_MOTION":15.05777687,"ECCENTRICITY":0.0011587,"INCLINATION":86.3587,"RA_OF_ASC_NODE":320.5585,"ARG_OF_PERICENTER":239.1626,"MEAN_ANOMALY":120.847,"EPHEMERIS_TYPE":0,"CLASSIFICATION_TYPE":"U","NORAD_CAT_ID":35484,"ELEMENT_SET_NO":999,"REV_AT_EPOCH":63043,"BSTAR":0.002574,"MEAN_MOTION_DOT":0.00037506,"MEAN_MOTION_DDOT":0},{"OBJECT_NAME":"IRIDIUM 33 DEB","OBJECT_ID":"1997-051QJ","EPOCH":"2026-03-06T06:44:47.932512","MEAN_MOTION":14.85252305,"ECCENTRICITY":0.00274452,"INCLINATION":86.3191,"RA_OF_ASC_NODE":262.2856,"ARG_OF_PERICENTER":102.4158,"MEAN_ANOMALY":258.014,"EPHEMERIS_TYPE":0,"CLASSIFICATION_TYPE":"U","NORAD_CAT_ID":35488,"ELEMENT_SET_NO":999,"REV_AT_EPOCH":89505,"BSTAR":0.0014274607,"MEAN_MOTION_DOT":0.00012364,"MEAN_MOTION_DDOT":0},{"OBJECT_NAME":"IRIDIUM 33 DEB","OBJECT_ID":"1997-051QN","EPOCH":"2026-03-06T02:30:07.948224","MEAN_MOTION":14.8464637,"ECCENTRICITY":0.00066413,"INCLINATION":86.3525,"RA_OF_ASC_NODE":307.6388,"ARG_OF_PERICENTER":247.1462,"MEAN_ANOMALY":112.9061,"EPHEMERIS_TYPE":0,"CLASSIFICATION_TYPE":"U","NORAD_CAT_ID":35616,"ELEMENT_SET_NO":999,"REV_AT_EPOCH":88810,"BSTAR":0.0014121085,"MEAN_MOTION_DOT":0.00011975,"MEAN_MOTION_DDOT":0},{"OBJECT_NAME":"IRIDIUM 33 DEB","OBJECT_ID":"1997-051QQ","EPOCH":"2026-03-04T11:11:49.822368","MEAN_MOTION":14.52714174,"ECCENTRICITY":0.00305475,"INCLINATION":86.3417,"RA_OF_ASC_NODE":317.7694,"ARG_OF_PERICENTER":101.7612,"MEAN_ANOMALY":258.7023,"EPHEMERIS_TYPE":0,"CLASSIFICATION_TYPE":"U","NORAD_CAT_ID":35618,"ELEMENT_SET_NO":999,"REV_AT_EPOCH":66580,"BSTAR":0.00054634879,"MEAN_MOTION_DOT":2.274e-5,"MEAN_MOTION_DDOT":0}]
